{
    "links": {
        "self": "http://www.neowsapp.com/rest/v1/neo/3879307?api_key=iIulBulltgU6a56xZRHN4H3l9WmuAYTsLGpBGhQ2"
    },
    "id": "3879307",
    "neo_reference_id": "3879307",
    "name": "(2019 UF3)",
    "designation": "2019 UF3",
    "nasa_jpl_url": "http://ssd.jpl.nasa.gov/sbdb.cgi?sstr=3879307",
    "absolute_magnitude_h": 24.4,
    "estimated_diameter": {
        "kilometers": {
            "estimated_diameter_min": 0.0350392641,
            "estimated_diameter_max": 0.0783501764
        },
        "meters": {
            "estimated_diameter_min": 35.0392641108,
            "estimated_diameter_max": 78.3501764334
        },
        "miles": {
            "estimated_diameter_min": 0.0217723826,
            "estimated_diameter_max": 0.0486845275
        },
        "feet": {
            "estimated_diameter_min": 114.9582192654,
            "estimated_diameter_max": 257.0543928497
        }
    },
    "is_potentially_hazardous_asteroid": false,
    "close_approach_data": [
        {
            "close_approach_date": "2019-10-21",
            "close_approach_date_full": "2019-Oct-21 03:48",
            "epoch_date_close_approach": 1571629680000,
            "relative_velocity": {
                "kilometers_per_second": "11.7785237478",
                "kilometers_per_hour": "42402.6854919288",
                "miles_per_hour": "26347.3797713599"
            },
            "miss_distance": {
                "astronomical": "0.067070072",
                "lunar": "26.090258008",
                "kilometers": "10033539.91194664",
                "miles": "6234552.601238032"
            },
            "orbiting_body": "Earth"
        },
        {
            "close_approach_date": "2023-09-10",
            "close_approach_date_full": "2023-Sep-10 05:20",
            "epoch_date_close_approach": 1694323200000,
            "relative_velocity": {
                "kilometers_per_second": "8.4878115701",
                "kilometers_per_hour": "30556.1216522452",
                "miles_per_hour": "18986.3857010853"
            },
            "miss_distance": {
                "astronomical": "0.0368812079",
                "lunar": "14.3467898731",
                "kilometers": "5517350.144867173",
                "miles": "3428322.4065980674"
            },
            "orbiting_body": "Mars"
        }
    ],
    "orbital_data": {
        "orbit_id": "3",
        "orbit_determination_date": "2019-10-29 06:39:46",
        "first_observation_date": "2019-10-21",
        "last_observation_date": "2019-10-29",
        "data_arc_in_days": 8,
        "observations_used": 25,
        "orbit_uncertainty": "8",
        "minimum_orbit_intersection": ".0592501",
        "jupiter_tisserand_invariant": "4.746",
        "epoch_osculation": "2458778.5",
        "eccentricity": ".2301054879680198",
        "semi_major_axis": "1.362140611098647",
        "inclination": "21.55613525390061",
        "ascending_node_longitude": "25.36176610563255",
        "orbital_period": "580.6726068777431",
        "perihelion_distance": "1.048704581100736",
        "perihelion_argument": "15.27051574372142",
        "aphelion_distance": "1.675576641096558",
        "perihelion_time": "2458792.582750910846",
        "mean_anomaly": "351.2691071218863",
        "mean_motion": ".6199706955967973",
        "equinox": "J2000",
        "orbit_class": {
            "orbit_class_type": "AMO",
            "orbit_class_description": "Near-Earth asteroid orbits similar to that of 1221 Amor",
            "orbit_class_range": "1.017 AU < q (perihelion) < 1.3 AU"
        }
    },
    "is_sentry_object": false
}